{"type": "FeatureCollection", "features": [ {"type": "Feature", "properties": {"norad_id": 33825, "name": "COSMOS 2251 DEB", "group": "cosmos-2251-debris", "lat": -19.655157682816665, "lon": -138.22458087051393, "alt_km": 723.7322450130596, "timestamp": "2025-12-08T13:49:32.186780+00:00", "meta": {"OBJECT_NAME": "COSMOS 2251 DEB", "OBJECT_ID": "1993-036BS", "EPOCH": "2025-12-08T06:40:49.859040", "MEAN_MOTION": 14.69703776, "ECCENTRICITY": 0.00843278, "INCLINATION": 73.9851, "RA_OF_ASC_NODE": 36.4659, "ARG_OF_PERICENTER": 4.6142, "MEAN_ANOMALY": 61.5059, "EPHEMERIS_TYPE": 0, "CLASSIFICATION_TYPE": "U", "NORAD_CAT_ID": 33825, "ELEMENT_SET_NO": 999, "REV_AT_EPOCH": 88814, "BSTAR": 0.00096950127, "MEAN_MOTION_DOT": 6.071e-05, "MEAN_MOTION_DDOT": 0}, "tle": {"line1": "1 33825U 93036BS  25342.27835485  .00006071  00000+0  96950-3 0  9995", "line2": "2 33825  73.9851  36.4659 0084327   4.6142  61.5059 14.69703776888145"}}, "geometry": {"type": "Point", "coordinates": [-138.22458087051393, -19.655157682816665]}}, {"type": "Feature", "properties": {"norad_id": 33826, "name": "COSMOS 2251 DEB", "group": "cosmos-2251-debris", "lat": -0.30827370620988176, "lon": 57.615781418742735, "alt_km": 736.4188633425892, "timestamp": "2025-12-08T13:49:32.186791+00:00", "meta": {"OBJECT_NAME": "COSMOS 2251 DEB", "OBJECT_ID": "1993-036BT", "EPOCH": "2025-12-08T07:29:50.656704", "MEAN_MOTION": 14.5165981, "ECCENTRICITY": 0.00837191, "INCLINATION": 74.0649, "RA_OF_ASC_NODE": 58.1993, "ARG_OF_PERICENTER": 103.9796, "MEAN_ANOMALY": 319.3518, "EPHEMERIS_TYPE": 0, "CLASSIFICATION_TYPE": "U", "NORAD_CAT_ID": 33826, "ELEMENT_SET_NO": 999, "REV_AT_EPOCH": 87705, "BSTAR": 0.0015984123, "MEAN_MOTION_DOT": 6.688e-05, "MEAN_MOTION_DDOT": 0}, "tle": {"line1": "1 33826U 93036BT  25342.31239186  .00006688  00000+0  15984-2 0  9998", "line2": "2 33826  74.0649  58.1993 0083719 103.9796 319.3518 14.51659810877059"}}, "geometry": {"type": "Point", "coordinates": [57.615781418742735, -0.30827370620988176]}}, {"type": "Feature", "properties": {"norad_id": 33828, "name": "COSMOS 2251 DEB", "group": "cosmos-2251-debris", "lat": 7.475092437465288, "lon": -112.01645999677405, "alt_km": 731.9813262515981, "timestamp": "2025-12-08T13:49:32.186801+00:00", "meta": {"OBJECT_NAME": "COSMOS 2251 DEB", "OBJECT_ID": "1993-036BV", "EPOCH": "2025-12-08T04:33:45.709632", "MEAN_MOTION": 14.44309433, "ECCENTRICITY": 0.00294079, "INCLINATION": 74.0472, "RA_OF_ASC_NODE": 246.55, "ARG_OF_PERICENTER": 320.1627, "MEAN_ANOMALY": 201.5113, "EPHEMERIS_TYPE": 0, "CLASSIFICATION_TYPE": "U", "NORAD_CAT_ID": 33828, "ELEMENT_SET_NO": 999, "REV_AT_EPOCH": 88247, "BSTAR": 0.00074124454, "MEAN_MOTION_DOT": 2.537e-05, "MEAN_MOTION_DDOT": 0}, "tle": {"line1": "1 33828U 93036BV  25342.19011238  .00002537  00000+0  74124-3 0  9993", "line2": "2 33828  74.0472 246.5500 0029407 320.1627 201.5113 14.44309433882472"}}, "geometry": {"type": "Point", "coordinates": [-112.01645999677405, 7.475092437465288]}}, {"type": "Feature", "properties": {"norad_id": 33830, "name": "COSMOS 2251 DEB", "group": "cosmos-2251-debris", "lat": 59.88972408487847, "lon": 28.942913344430675, "alt_km": 646.301597373943, "timestamp": "2025-12-08T13:49:32.186813+00:00", "meta": {"OBJECT_NAME": "COSMOS 2251 DEB", "OBJECT_ID": "1993-036BX", "EPOCH": "2025-12-08T04:05:06.821376", "MEAN_MOTION": 14.76809877, "ECCENTRICITY": 0.00422651, "INCLINATION": 74.0325, "RA_OF_ASC_NODE": 239.3242, "ARG_OF_PERICENTER": 0.3637, "MEAN_ANOMALY": 118.2126, "EPHEMERIS_TYPE": 0, "CLASSIFICATION_TYPE": "U", "NORAD_CAT_ID": 33830, "ELEMENT_SET_NO": 999, "REV_AT_EPOCH": 89404, "BSTAR": 0.0012253608, "MEAN_MOTION_DOT": 8.703e-05, "MEAN_MOTION_DDOT": 0}, "tle": {"line1": "1 33830U 93036BX  25342.17021784  .00008703  00000+0  12254-2 0  9997", "line2": "2 33830  74.0325 239.3242 0042265   0.3637 118.2126 14.76809877894046"}}, "geometry": {"type": "Point", "coordinates": [28.942913344430675, 59.88972408487847]}}, {"type": "Feature", "properties": {"norad_id": 33832, "name": "COSMOS 2251 DEB", "group": "cosmos-2251-debris", "lat": 46.52145135423338, "lon": -124.53204664817574, "alt_km": 703.605503433987, "timestamp": "2025-12-08T13:49:32.186824+00:00", "meta": {"OBJECT_NAME": "COSMOS 2251 DEB", "OBJECT_ID": "1993-036BZ", "EPOCH": "2025-12-08T02:48:05.865984", "MEAN_MOTION": 14.6055874, "ECCENTRICITY": 0.00252482, "INCLINATION": 74.0537, "RA_OF_ASC_NODE": 218.7948, "ARG_OF_PERICENTER": 250.8501, "MEAN_ANOMALY": 263.9312, "EPHEMERIS_TYPE": 0, "CLASSIFICATION_TYPE": "U", "NORAD_CAT_ID": 33832, "ELEMENT_SET_NO": 999, "REV_AT_EPOCH": 88357, "BSTAR": 0.0016659264, "MEAN_MOTION_DOT": 8.109e-05, "MEAN_MOTION_DDOT": 0}, "tle": {"line1": "1 33832U 93036BZ  25342.11673456  .00008109  00000+0  16659-2 0  9995", "line2": "2 33832  74.0537 218.7948 0025248 250.8501 263.9312 14.60558740883575"}}, "geometry": {"type": "Point", "coordinates": [-124.53204664817574, 46.52145135423338]}}, {"type": "Feature", "properties": {"norad_id": 33835, "name": "COSMOS 2251 DEB", "group": "cosmos-2251-debris", "lat": -38.89838545092757, "lon": -57.59204865620941, "alt_km": 670.7960354933712, "timestamp": "2025-12-08T13:49:32.186835+00:00", "meta": {"OBJECT_NAME": "COSMOS 2251 DEB", "OBJECT_ID": "1993-036CC", "EPOCH": "2025-12-07T15:35:03.922944", "MEAN_MOTION": 14.62162375, "ECCENTRICITY": 0.00552099, "INCLINATION": 74.0576, "RA_OF_ASC_NODE": 110.8449, "ARG_OF_PERICENTER": 165.8116, "MEAN_ANOMALY": 218.2895, "EPHEMERIS_TYPE": 0, "CLASSIFICATION_TYPE": "U", "NORAD_CAT_ID": 33835, "ELEMENT_SET_NO": 999, "REV_AT_EPOCH": 88715, "BSTAR": 0.0019235469, "MEAN_MOTION_DOT": 9.877e-05, "MEAN_MOTION_DDOT": 0}, "tle": {"line1": "1 33835U 93036CC  25341.64935096  .00009877  00000+0  19235-2 0  9992", "line2": "2 33835  74.0576 110.8449 0055209 165.8116 218.2895 14.62162375887150"}}, "geometry": {"type": "Point", "coordinates": [-57.59204865620941, -38.89838545092757]}}, {"type": "Feature", "properties": {"norad_id": 33836, "name": "COSMOS 2251 DEB", "group": "cosmos-2251-debris", "lat": -15.508969288434113, "lon": -97.40199268240134, "alt_km": 647.050730660495, "timestamp": "2025-12-08T13:49:32.186845+00:00", "meta": {"OBJECT_NAME": "COSMOS 2251 DEB", "OBJECT_ID": "1993-036CD", "EPOCH": "2025-12-08T06:21:24.283296", "MEAN_MOTION": 14.79484306, "ECCENTRICITY": 0.00224793, "INCLINATION": 73.9976, "RA_OF_ASC_NODE": 267.7793, "ARG_OF_PERICENTER": 122.605, "MEAN_ANOMALY": 4.7098, "EPHEMERIS_TYPE": 0, "CLASSIFICATION_TYPE": "U", "NORAD_CAT_ID": 33836, "ELEMENT_SET_NO": 999, "REV_AT_EPOCH": 64022, "BSTAR": 0.0016405992, "MEAN_MOTION_DOT": 0.00012302, "MEAN_MOTION_DDOT": 0}, "tle": {"line1": "1 33836U 93036CD  25342.26486439  .00012302  00000+0  16406-2 0  9998", "line2": "2 33836  73.9976 267.7793 0022479 122.6050   4.7098 14.79484306640225"}}, "geometry": {"type": "Point", "coordinates": [-97.40199268240134, -15.508969288434113]}}, {"type": "Feature", "properties": {"norad_id": 33837, "name": "COSMOS 2251 DEB", "group": "cosmos-2251-debris", "lat": 34.01664780870607, "lon": 74.59354349729013, "alt_km": 729.4304979616236, "timestamp": "2025-12-08T13:49:32.186856+00:00", "meta": {"OBJECT_NAME": "COSMOS 2251 DEB", "OBJECT_ID": "1993-036CE", "EPOCH": "2025-12-08T07:02:30.615360", "MEAN_MOTION": 14.50687323, "ECCENTRICITY": 0.00357919, "INCLINATION": 74.0132, "RA_OF_ASC_NODE": 63.9688, "ARG_OF_PERICENTER": 286.4178, "MEAN_ANOMALY": 73.3049, "EPHEMERIS_TYPE": 0, "CLASSIFICATION_TYPE": "U", "NORAD_CAT_ID": 33837, "ELEMENT_SET_NO": 999, "REV_AT_EPOCH": 88731, "BSTAR": 0.00051789957, "MEAN_MOTION_DOT": 2.023e-05, "MEAN_MOTION_DDOT": 0}, "tle": {"line1": "1 33837U 93036CE  25342.29340990  .00002023  00000+0  51790-3 0  9998", "line2": "2 33837  74.0132  63.9688 0035791 286.4178  73.3049 14.50687323887316"}}, "geometry": {"type": "Point", "coordinates": [74.59354349729013, 34.01664780870607]}}, {"type": "Feature", "properties": {"norad_id": 33838, "name": "COSMOS 2251 DEB", "group": "cosmos-2251-debris", "lat": -53.797176657092194, "lon": 134.58982826920965, "alt_km": 719.7446553561749, "timestamp": "2025-12-08T13:49:32.186867+00:00", "meta": {"OBJECT_NAME": "COSMOS 2251 DEB", "OBJECT_ID": "1993-036CF", "EPOCH": "2025-12-08T06:35:52.204128", "MEAN_MOTION": 14.48342688, "ECCENTRICITY": 0.00274373, "INCLINATION": 74.0361, "RA_OF_ASC_NODE": 158.1748, "ARG_OF_PERICENTER": 280.6559, "MEAN_ANOMALY": 252.6136, "EPHEMERIS_TYPE": 0, "CLASSIFICATION_TYPE": "U", "NORAD_CAT_ID": 33838, "ELEMENT_SET_NO": 999, "REV_AT_EPOCH": 88504, "BSTAR": 0.00067219254, "MEAN_MOTION_DOT": 2.499e-05, "MEAN_MOTION_DDOT": 0}, "tle": {"line1": "1 33838U 93036CF  25342.27490977  .00002499  00000+0  67219-3 0  9998", "line2": "2 33838  74.0361 158.1748 0027437 280.6559 252.6136 14.48342688885048"}}, "geometry": {"type": "Point", "coordinates": [134.58982826920965, -53.797176657092194]}}, {"type": "Feature", "properties": {"norad_id": 33839, "name": "COSMOS 2251 DEB", "group": "cosmos-2251-debris", "lat": -10.450925903476325, "lon": -148.54509106153967, "alt_km": 627.1152047488822, "timestamp": "2025-12-08T13:49:32.186877+00:00", "meta": {"OBJECT_NAME": "COSMOS 2251 DEB", "OBJECT_ID": "1993-036CG", "EPOCH": "2025-12-07T15:02:34.528128", "MEAN_MOTION": 14.64399997, "ECCENTRICITY": 0.00849554, "INCLINATION": 74.0392, "RA_OF_ASC_NODE": 216.3042, "ARG_OF_PERICENTER": 329.5835, "MEAN_ANOMALY": 56.9141, "EPHEMERIS_TYPE": 0, "CLASSIFICATION_TYPE": "U", "NORAD_CAT_ID": 33839, "ELEMENT_SET_NO": 999, "REV_AT_EPOCH": 89505, "BSTAR": 0.00046688625, "MEAN_MOTION_DOT": 2.569e-05, "MEAN_MOTION_DDOT": 0}, "tle": {"line1": "1 33839U 93036CG  25341.62678852  .00002569  00000+0  46689-3 0  9993", "line2": "2 33839  74.0392 216.3042 0084955 329.5835  56.9141 14.64399997895051"}}, "geometry": {"type": "Point", "coordinates": [-148.54509106153967, -10.450925903476325]}}]}